0 COSMOS 2271
1 23002U 94011D   13281.42119951  .00000023  00000-0  71197-4 0  4303
2 23002 082.5695 025.9798 0006640 272.7291 154.7800 12.63407173906374
0 COSMOS 2271
1 23002U 94011D   13283.80810461 -.00000003  00000-0 -72552-4 0  4318
2 23002 082.5699 024.4515 0006719 266.5455 211.8227 12.63407237906671
0 COSMOS 2271
1 23002U 94011D   13286.09418968  .00000025  00000-0  81228-4 0  4321
2 23002 082.5701 022.9880 0006754 260.5314 170.3718 12.63407089906961
0 COSMOS 2271
1 23002U 94011D   13288.39003563  .00000045  00000-0  18755-3 0  4334
2 23002 082.5700 021.5184 0006806 254.7370 173.0725 12.63406949907252
0 COSMOS 2271
1 23002U 94011D   13290.77695010  .00000039  00000-0  15919-3 0  4346
2 23002 082.5696 019.9905 0006855 248.7194 229.9918 12.63406986907558
0 COSMOS 2271
1 23002U 94011D   13293.29884703  .00000029  00000-0  10048-3 0  4353
2 23002 082.5693 018.3759 0006964 242.6628 180.5805 12.63407412907878
0 COSMOS 2271
1 23002U 94011D   13295.35899737  .00000011  00000-0  41909-6 0  4360
2 23002 082.5693 017.0570 0007038 237.5770 191.1027 12.63407594908134
